[
    {
        "Altitude(m)": 607886.6664473218,
        "Argument of Periapsis(deg)": 0.0,
        "Eccentricity": 0.0,
        "Inclination(deg)": 60.0,
        "Latitude(deg)": 40.99837593486041,
        "Longitude(deg)": -65.0270827334942,
        "Mean Anomaly(deg)": 49.09089999999999,
        "RAAN(deg)": 5.0,
        "Satellite Name": "Test1 25",
        "Satellite Number": 25,
        "Semi-Major Axis(m)": 6980739.136638005,
        "Time(s)": 0
    },
    {
        "Altitude(m)": 607987.580670524,
        "Argument of Periapsis(deg)": 0.00010418945913296404,
        "Eccentricity": 0.0,
        "Inclination(deg)": 60.0,
        "Latitude(deg)": 41.46346665523034,
        "Longitude(deg)": -64.5228564106048,
        "Mean Anomaly(deg)": 49.71100614546182,
        "RAAN(deg)": 4.999579950860257,
        "Satellite Name": "Test1 25",
        "Satellite Number": 25,
        "Semi-Major Axis(m)": 6980739.136638005,
        "Time(s)": 10
    }
]